ONEWEB-0199             
1 48234U 21031AA  25201.92073300 -.00000161  00000+0 -46946-3 0  9993
2 48234  87.9053 355.6031 0001921  97.6973 262.4375 13.14503646204741
ONEWEB-0203             
1 48235U 21031AB  25201.91121108 -.00000202  00000+0 -57902-3 0  9993
2 48235  87.9056 355.6079 0002047  90.5652 269.5712 13.14503841204754
ONEWEB-0197             
1 48236U 21031AC  25201.88664087  .00000175  00000+0  43632-3 0  9990
2 48236  87.9044 355.6139 0001649 104.4119 255.7194 13.14501811204665
ONEWEB-0194             
1 48237U 21031AD  25201.94135419  .00000073  00000+0  16201-3 0  9999
2 48237  87.9054 355.6102 0002053  96.5887 263.5477 13.14503622204843
ONEWEB-0193             
1 48238U 21031AE  25201.88109969  .00000197  00000+0  49644-3 0  9998
2 48238  87.9053 355.6296 0001931  91.1588 268.9763 13.14504040204785
ONEWEB-0191             
1 48239U 21031AF  25201.89219556  .00000093  00000+0  21642-3 0  9997
2 48239  87.9057 355.5994 0002085  91.2484 268.8885 13.14502691204640
ONEWEB-0195             
1 48240U 21031AG  25201.94530458  .00000192  00000+0  48435-3 0  9991
2 48240  87.9051 355.5861 0001750  82.3217 277.8112 13.14504483204635
ONEWEB-0201             
1 48241U 21031AH  25201.93355473 -.00000203  00000+0 -58202-3 0  9991
2 48241  87.9055 355.6361 0001499  94.2133 265.9168 13.14502856204861
